STARLINK-1832
1 16780C 20074AT  21326.13108443  .00003444  00000-0  23082-3 0  3263
2 16780  53.0525 153.1512 0001860  78.0079 313.0955 15.06381588    13
